NORAD_CAT_ID,OBJECT_NAME,OBJECT_TYPE,EPOCH,MEAN_MOTION,ECCENTRICITY,INCLINATION,RA_OF_ASC_NODE,ARG_OF_PERICENTER,MEAN_ANOMALY,BSTAR,MEAN_MOTION_DOT,MEAN_MOTION_DDOT,TLE_LINE0,TLE_LINE1,TLE_LINE2,SEMIMAJOR_AXIS,PERIOD,APOGEE,PERIGEE,DECAYED
51885.0,STARLINK-3584,PAYLOAD,2022-05-21 14:00:01,15.49947308,0.0001593,53.2131,114.8582,55.1411,6.4347,-0.0013337,-0.00075588,0.0,0 STARLINK-3584,1 51885U 22022AK  22141.58335648 -.00075588  00000-0 -13337-2 0  9991,2 51885  53.2131 114.8582 0001593  55.1411   6.4347 15.49947308 13624,6795.017,92.906,417.965,415.8,0.0
51885.0,STARLINK-3584,PAYLOAD,2022-05-21 22:00:00,15.49877451,0.0001399,53.2133,113.2641,62.1469,60.3266,0.00049946,0.00027989,0.0,0 STARLINK-3584,1 51885U 22022AK  22141.91667824  .00027989  00000-0  49946-3 0  9998,2 51885  53.2133 113.2641 0001399  62.1469  60.3266 15.49877451  1302,6795.221,92.911,418.037,416.136,0.0
51885.0,STARLINK-3584,PAYLOAD,2022-05-22 06:00:00,15.49878353,0.0001551,53.2142,111.6714,51.8402,131.546,0.00058183,0.00032701,0.0,0 STARLINK-3584,1 51885U 22022AK  22142.25001157  .00032701  00000-0  58183-3 0  9998,2 51885  53.2142 111.6714 0001551  51.8402 131.5460 15.49878353 13736,6795.219,92.911,418.138,416.03,0.0
51885.0,STARLINK-3584,PAYLOAD,2022-05-22 14:00:01,15.49880321,0.0001423,53.2156,110.0742,53.8841,190.4495,-0.0094157999999999,-0.00501896,0.0,0 STARLINK-3584,1 51885U 22022AK  22142.58334491 -.00501896  00000-0 -94158-2 0  9993,2 51885  53.2156 110.0742 0001423  53.8841 190.4495 15.49880321 13787,6795.2130000000025,92.91,418.045,416.111,0.0
51885.0,STARLINK-3584,PAYLOAD,2022-05-22 22:00:01,15.49807658,0.000123,53.2172,108.4774,64.8768,240.1343,-0.013507,-0.00708886,0.0,0 STARLINK-3584,1 51885U 22022AK  22142.91668981 -.00708886  00000-0 -13507-1 0  9990,2 51885  53.2172 108.4774 0001230  64.8768 240.1343 15.49807658 13830,6795.425,92.915,418.126,416.454,0.0
51885.0,STARLINK-3584,PAYLOAD,2022-05-23 14:00:01,15.48793661,0.0001218,53.2174,105.2933,56.4473,8.9185,-0.014275,-0.00721746,0.0,0 STARLINK-3584,1 51885U 22022AK  22143.58334491 -.00721746  00000-0 -14275-1 0  9993,2 51885  53.2174 105.2933 0001218  56.4473   8.9185 15.48793661 13932,6798.391,92.976,421.084,419.42800000000005,0.0
51885.0,STARLINK-3584,PAYLOAD,2022-05-23 22:00:01,15.48282803,0.00014,53.2175,103.702,54.9791,69.7424,-0.0144889999999999,-0.00719692,0.0,0 STARLINK-3584,1 51885U 22022AK  22143.91668981 -.00719692  00000-0 -14489-1 0  9998,2 51885  53.2175 103.7020 0001400  54.9791  69.7424 15.48282803  1302,6799.886,93.006,422.703,420.799,0.0
51885.0,STARLINK-3584,PAYLOAD,2022-05-24 11:24:48,15.48291165,0.0002411,53.2134,101.0482,20.1214,339.9890000000001,-0.0047397,-0.00246948,0.0,0 STARLINK-3584,1 51885U 22022AK  22144.47556576 -.00246948  00000-0 -47397-2 0  9990,2 51885  53.2134 101.0482 0002411  20.1214 339.9890 15.48291165 14076,6799.861999999999,93.006,423.366,420.087,0.0
51885.0,STARLINK-3584,PAYLOAD,2022-05-24 22:00:00,15.46753716,0.0001337,53.2177,98.9382,60.4253,238.4264,-0.015301,-0.0072039,0.0,0 STARLINK-3584,1 51885U 22022AK  22144.91667824 -.00720390  00000-0 -15301-1 0  9995,2 51885  53.2177  98.9382 0001337  60.4253 238.4264 15.46753716 14130,6804.3669999999975,93.098,427.142,425.322,0.0
51885.0,STARLINK-3584,PAYLOAD,2022-05-25 14:00:01,15.45733219,0.0001248,53.2175,95.7688,54.2324,357.6857,-0.015855,-0.00720515,0.0,0 STARLINK-3584,1 51885U 22022AK  22145.58334491 -.00720515  00000-0 -15855-1 0  9993,2 51885  53.2175  95.7688 0001248  54.2324 357.6857 15.45733219  1305,6807.361999999999,93.16,430.076,428.377,0.0
51885.0,STARLINK-3584,PAYLOAD,2022-05-25 19:59:03,15.46492379,0.0003047,53.2134,94.5933,118.5926,241.539,-0.0064572,-0.00313275,0.0,0 STARLINK-3584,1 51885U 22022AK  22145.83268366 -.00313275  00000-0 -64572-2 0  9990,2 51885  53.2134  94.5933 0003047 118.5926 241.5390 15.46492379 14285,6805.134,93.114,429.072,424.925,0.0
51885.0,STARLINK-3584,PAYLOAD,2022-05-25 22:00:00,15.45222735,0.0001455,53.2177,94.1855,49.0366,58.4958,-0.016106,-0.00719289,0.0,0 STARLINK-3584,1 51885U 22022AK  22145.91667824 -.00719289  00000-0 -16106-1 0  9995,2 51885  53.2177  94.1855 0001455  49.0366  58.4958 15.45222735 14290,6808.861,93.19,431.716,429.735,0.0
51885.0,STARLINK-3584,PAYLOAD,2022-05-26 14:00:01,15.44204324,0.0001412,53.2174,91.023,62.1945,154.7267,-0.016736,-0.00721592,0.0,0 STARLINK-3584,1 51885U 22022AK  22146.58334491 -.00721592  00000-0 -16736-1 0  9999,2 51885  53.2174  91.0230 0001412  62.1945 154.7267 15.44204324  1306,6811.854,93.252,434.681,432.757,0.0
51885.0,STARLINK-3584,PAYLOAD,2022-05-26 22:00:00,15.4369348,0.0001467,53.2175,89.4435,55.3656,215.3313,-0.016982,-0.00719715,0.0,0 STARLINK-3584,1 51885U 22022AK  22146.91667824 -.00719715  00000-0 -16982-1 0  9992,2 51885  53.2175  89.4435 0001467  55.3656 215.3313 15.43693480 14447,6813.357,93.283,436.221,434.222,0.0
51885.0,STARLINK-3584,PAYLOAD,2022-05-27 01:30:13,15.44707604,0.0001206,53.2153,88.7672,150.8994,209.2081,-0.0047503,-0.00219416,0.0,0 STARLINK-3584,1 51885U 22022AK  22147.06265325 -.00219416  00000-0 -47503-2 0  9996,2 51885  53.2153  88.7672 0001206 150.8994 209.2081 15.44707604 14477,6810.374,93.222,433.061,431.418,0.0
51885.0,STARLINK-3584,PAYLOAD,2022-05-27 14:00:01,15.42673473,0.0001197,53.2174,86.2884,57.6256,318.7842,-0.017598,-0.00720369,0.0,0 STARLINK-3584,1 51885U 22022AK  22147.58334491 -.00720369  00000-0 -17598-1 0  9998,2 51885  53.2174  86.2884 0001197  57.6256 318.7842 15.42673473 14556,6816.36,93.344,439.041,437.409,0.0
51885.0,STARLINK-3584,PAYLOAD,2022-05-27 22:00:01,15.4210697,0.0001401,53.2164,84.7135,55.2007,13.2381,-0.015853,-0.0063481,0.0,0 STARLINK-3584,1 51885U 22022AK  22147.91668981 -.00634810  00000-0 -15853-1 0  9996,2 51885  53.2164  84.7135 0001401  55.2007  13.2381 15.42106970  1300,6818.029,93.379,440.849,438.939,0.0
51885.0,STARLINK-3584,PAYLOAD,2022-05-28 14:00:01,15.41142163,0.0001361,53.2174,81.5645,62.0393,108.3441,-0.018442,-0.00717309,0.0,0 STARLINK-3584,1 51885U 22022AK  22148.58334491 -.00717309  00000-0 -18442-1 0  9998,2 51885  53.2174  81.5645 0001361  62.0393 108.3441 15.41142163  1307,6820.874,93.437,443.668,441.811,0.0
51885.0,STARLINK-3584,PAYLOAD,2022-05-28 19:29:51,15.42221098,0.0001444,53.2147,80.4979,62.3218,297.7935,-0.0048881,-0.00207884,0.0,0 STARLINK-3584,1 51885U 22022AK  22148.81239873 -.00207884  00000-0 -48881-2 0  9995,2 51885  53.2147  80.4979 0001444  62.3218 297.7935 15.42221098 14745,6817.693,93.372,440.542,438.573,0.0
51885.0,STARLINK-3584,PAYLOAD,2022-05-29 06:00:02,15.40017923,0.0001518,53.2167,78.4245,49.7597,220.332,-0.015425,-0.00580175,0.0,0 STARLINK-3584,1 51885U 22022AK  22149.25002315 -.00580175  00000-0 -15425-1 0  9997,2 51885  53.2167  78.4245 0001518  49.7597 220.3320 15.40017923 14806,6824.193,93.505,447.094,445.022,0.0
51885.0,STARLINK-3584,PAYLOAD,2022-05-29 14:00:01,15.39612779,0.0001308,53.2175,76.8517,57.4315,261.4099,-0.019434,-0.00718307,0.0,0 STARLINK-3584,1 51885U 22022AK  22149.58334491 -.00718307  00000-0 -19434-1 0  9990,2 51885  53.2175  76.8517 0001308  57.4315 261.4099 15.39612779 14852,6825.39,93.53,448.148,446.36300000000006,0.0
51885.0,STARLINK-3584,PAYLOAD,2022-05-29 18:51:45,15.40616128,0.000167,53.2149,75.9136,124.808,235.3083,-0.0050958,-0.00205484,0.0,0 STARLINK-3584,1 51885U 22022AK  22149.78594009 -.00205484  00000-0 -50958-2 0  9999,2 51885  53.2149  75.9136 0001670 124.8080 235.3083 15.40616128 14891,6822.427,93.469,445.431,443.152,0.0
51885.0,STARLINK-3584,PAYLOAD,2022-05-30 12:00:37,15.39555554,9.3e-05,53.2149,72.5551,69.6642,290.4463,-0.0060012,-0.00232752,0.0,0 STARLINK-3584,1 51885U 22022AK  22150.50043650 -.00232752  00000-0 -60012-2 0  9992,2 51885  53.2149  72.5551 0000930  69.6642 290.4463 15.39555554 15004,6825.56,93.533,448.059,446.79,0.0
51885.0,STARLINK-3584,PAYLOAD,2022-05-30 14:00:01,15.38081697,0.0001367,53.2175,72.1498,51.7526,50.0321,-0.020375,-0.00716237,0.0,0 STARLINK-3584,1 51885U 22022AK  22150.58334491 -.00716237  00000-0 -20375-1 0  9998,2 51885  53.2175  72.1498 0001367  51.7526  50.0321 15.38081697  1309,6829.919,93.623,452.718,450.851,0.0
51885.0,STARLINK-3584,PAYLOAD,2022-05-30 22:00:00,15.37474687,0.0001448,53.2172,70.5863,66.3085,81.95100000000002,-0.016869,-0.00583313,0.0,0 STARLINK-3584,1 51885U 22022AK  22150.91667824 -.00583313  00000-0 -16869-1 0  9994,2 51885  53.2172  70.5863 0001448  66.3085  81.9510 15.37474687 15061,6831.717,93.66,454.571,452.593,0.0
51885.0,STARLINK-3584,PAYLOAD,2022-05-31 06:00:02,15.36936449,0.0001568,53.2166,69.0243,59.4936,134.6521,-0.015907,-0.00543368,0.0,0 STARLINK-3584,1 51885U 22022AK  22151.25002315 -.00543368  00000-0 -15907-1 0  9998,2 51885  53.2166  69.0243 0001568  59.4936 134.6521 15.36936449 15112,6833.312,93.693,456.24800000000016,454.105,0.0
51885.0,STARLINK-3584,PAYLOAD,2022-05-31 14:00:01,15.36551433,0.0001431,53.2175,67.4585,59.9533,179.2595,-0.021376,-0.00714975,0.0,0 STARLINK-3584,1 51885U 22022AK  22151.58334491 -.00714975  00000-0 -21376-1 0  9998,2 51885  53.2175  67.4585 0001431  59.9533 179.2595 15.36551433 15167,6834.453,93.716,457.296,455.34,0.0
51885.0,STARLINK-3584,PAYLOAD,2022-05-31 22:00:00,15.35951445,0.0001426,53.2171,65.899,76.7481,207.0948,-0.017877,-0.00587981,0.0,0 STARLINK-3584,1 51885U 22022AK  22151.91667824 -.00587981  00000-0 -17877-1 0  9990,2 51885  53.2171  65.8990 0001426  76.7481 207.0948 15.35951445  1307,6836.233,93.753,459.073,457.12300000000016,0.0
51885.0,STARLINK-3584,PAYLOAD,2022-06-01 14:00:01,15.35021085,0.000122,53.2174,62.7785,58.8869,312.2389,-0.02245,-0.00714707,0.0,0 STARLINK-3584,1 51885U 22022AK  22152.58334491 -.00714707  00000-0 -22450-1 0  9996,2 51885  53.2174  62.7785 0001220  58.8869 312.2389 15.35021085 15324,6838.995,93.81,461.694,460.026,0.0
